[{"OBJECT_NAME":"NUSAT-41 (C PAYNE-G)","OBJECT_ID":"2023-084N","EPOCH":"2026-03-09T21:55:54.837696","MEAN_MOTION":15.29680045,"ECCENTRICITY":0.00062175,"INCLINATION":97.5351,"RA_OF_ASC_NODE":204.1011,"ARG_OF_PERICENTER":322.2064,"MEAN_ANOMALY":37.8738,"EPHEMERIS_TYPE":0,"CLASSIFICATION_TYPE":"U","NORAD_CAT_ID":56944,"ELEMENT_SET_NO":999,"REV_AT_EPOCH":15260,"BSTAR":0.00059912824,"MEAN_MOTION_DOT":0.0001718,"MEAN_MOTION_DDOT":0},{"OBJECT_NAME":"STARLINK-34331","OBJECT_ID":"2025-117B","EPOCH":"2026-03-09T07:14:50.593344","MEAN_MOTION":15.30187866,"ECCENTRICITY":0.00013753,"INCLINATION":53.1615,"RA_OF_ASC_NODE":41.5976,"ARG_OF_PERICENTER":77.5931,"MEAN_ANOMALY":282.5224,"EPHEMERIS_TYPE":0,"CLASSIFICATION_TYPE":"U","NORAD_CAT_ID":64204,"ELEMENT_SET_NO":999,"REV_AT_EPOCH":4446,"BSTAR":0.00081344087,"MEAN_MOTION_DOT":0.00023801,"MEAN_MOTION_DDOT":0}]
